NORAD_CAT_ID,OBJECT_NAME,OBJECT_TYPE,EPOCH,MEAN_MOTION,ECCENTRICITY,INCLINATION,RA_OF_ASC_NODE,ARG_OF_PERICENTER,MEAN_ANOMALY,BSTAR,MEAN_MOTION_DOT,MEAN_MOTION_DDOT,TLE_LINE0,TLE_LINE1,TLE_LINE2,SEMIMAJOR_AXIS,PERIOD,APOGEE,PERIGEE,DECAYED
52670.0,STARLINK-4075,PAYLOAD,2023-11-17 10:23:35,15.08814815,0.0001751,53.2193,339.7135,90.8951,269.2242,0.00032399,4.869e-05,0.0,0 STARLINK-4075,1 52670U 22053Q   23321.43305338  .00004869  00000-0  32399-3 0  9998,2 52670  53.2193 339.7135 0001751  90.8951 269.2242 15.08814815 83315,6917.957,95.439,541.034,538.611,0.0
52670.0,STARLINK-4075,PAYLOAD,2023-11-17 18:20:31,15.08836008,0.000171,53.2194,338.2266,86.8538,273.2649,4.7412e-05,4.67e-06,0.0,0 STARLINK-4075,1 52670U 22053Q   23321.76424930  .00000467  00000-0  47412-4 0  9997,2 52670  53.2194 338.2266 0001710  86.8538 273.2649 15.08836008 83365,6917.893,95.438,540.941,538.575,0.0
52670.0,STARLINK-4075,PAYLOAD,2023-11-18 08:38:59,15.08840495,0.0001616,53.2188,335.5533,98.5722,261.5453,2.1261e-05,5e-07,0.0,0 STARLINK-4075,1 52670U 22053Q   23322.36040835  .00000050  00000-0  21261-4 0  9994,2 52670  53.2188 335.5533 0001616  98.5722 261.5453 15.08840495 83880,6917.879,95.438,540.862,538.626,0.0
52670.0,STARLINK-4075,PAYLOAD,2023-11-18 18:11:18,15.0884293,0.000158,53.2187,333.7686,96.476,263.6412,-4.2935e-06,-3.56e-06,0.0,0 STARLINK-4075,1 52670U 22053Q   23322.75784734 -.00000356  00000-0 -42935-5 0  9993,2 52670  53.2187 333.7686 0001580  96.4760 263.6412 15.08842930 83948,6917.871,95.437,540.829,538.643,0.0
52670.0,STARLINK-4075,PAYLOAD,2023-11-19 08:29:46,15.08842847,0.0001459,53.2177,331.0925,91.0734,269.0425,8.0797e-05,9.98e-06,0.0,0 STARLINK-4075,1 52670U 22053Q   23323.35400632  .00000998  00000-0  80797-4 0  9999,2 52670  53.2177 331.0925 0001459  91.0734 269.0425 15.08842847 83605,6917.872,95.437,540.746,538.727,0.0
52670.0,STARLINK-4075,PAYLOAD,2023-11-19 18:02:04,15.08843138,0.0001459,53.2177,329.3084,90.8265,269.2895,8.1103e-05,1.003e-05,0.0,0 STARLINK-4075,1 52670U 22053Q   23323.75144558  .00001003  00000-0  81103-4 0  9995,2 52670  53.2177 329.3084 0001459  90.8265 269.2895 15.08843138 84098,6917.871,95.437,540.745,538.726,0.0
52670.0,STARLINK-4075,PAYLOAD,2023-11-20 11:31:18,15.08850745,0.0001494,53.2178,326.0374,93.303,266.8133,0.00015338,2.155e-05,0.0,0 STARLINK-4075,1 52670U 22053Q   23324.48007736  .00002155  00000-0  15338-3 0  9997,2 52670  53.2178 326.0374 0001494  93.3030 266.8133 15.08850745 84205,6917.848,95.437,540.746,538.679,0.0
52670.0,STARLINK-4075,PAYLOAD,2023-11-20 17:52:52,15.08836488,0.000165,53.2179,324.848,86.0088,274.1092,6.0006e-06,-1.93e-06,0.0,0 STARLINK-4075,1 52670U 22053Q   23324.74505087 -.00000193  00000-0  60006-5 0  9993,2 52670  53.2179 324.8480 0001650  86.0088 274.1092 15.08836488 83816,6917.891,95.438,540.898,538.615,0.0
52670.0,STARLINK-4075,PAYLOAD,2023-11-21 06:35:56,15.08844054,0.0001517,53.2179,322.468,93.8939,266.2226,4.7418e-05,4.67e-06,0.0,0 STARLINK-4075,1 52670U 22053Q   23325.27496492  .00000467  00000-0  47418-4 0  9995,2 52670  53.2179 322.4680 0001517  93.8939 266.2226 15.08844054 83892,6917.868,95.437,540.782,538.684,0.0
52670.0,STARLINK-4075,PAYLOAD,2023-11-21 11:22:05,15.08849298,0.0001519,53.2184,321.5756,93.3174,266.7992,8.3855e-05,1.047e-05,0.0,0 STARLINK-4075,1 52670U 22053Q   23325.47368054  .00001047  00000-0  83855-4 0  9999,2 52670  53.2184 321.5756 0001519  93.3174 266.7992 15.08849298 84352,6917.852,95.437,540.768,538.666,0.0
52670.0,STARLINK-4075,PAYLOAD,2023-11-22 04:51:20,15.08851862,0.000162,53.2176,318.3044,98.4573,261.6602,0.00010904,1.448e-05,0.0,0 STARLINK-4075,1 52670U 22053Q   23326.20231801  .00001448  00000-0  10904-3 0  9999,2 52670  53.2176 318.3044 0001620  98.4573 261.6602 15.08851862 84463,6917.844,95.437,540.83,538.588,0.0
52670.0,STARLINK-4075,PAYLOAD,2023-11-23 03:06:44,15.08842619,0.000164,53.2166,314.1424,95.6665,264.4514,9.3113e-05,1.194e-05,0.0,0 STARLINK-4075,1 52670U 22053Q   23327.12968295  .00001194  00000-0  93113-4 0  9997,2 52670  53.2166 314.1424 0001640  95.6665 264.4514 15.08842619 84172,6917.872,95.437,540.872,538.603,0.0
52670.0,STARLINK-4075,PAYLOAD,2023-11-23 06:17:30,15.08845953,0.0001736,53.2179,313.5516,100.2857,259.8331,0.00013015,1.784e-05,0.0,0 STARLINK-4075,1 52670U 22053Q   23327.26216026  .00001784  00000-0  13015-3 0  9997,2 52670  53.2179 313.5516 0001736 100.2857 259.8331 15.08845953 84622,6917.862,95.437,540.928,538.526,0.0
52670.0,STARLINK-4075,PAYLOAD,2023-11-24 02:57:32,15.08828015,0.0001792,53.2181,309.6914,110.1521,249.9664,-0.00013152,-2.38e-05,0.0,0 STARLINK-4075,1 52670U 22053Q   23328.12329315 -.00002380  00000-0 -13152-3 0  9996,2 52670  53.2181 309.6914 0001792 110.1521 249.9664 15.08828015 84329,6917.917,95.438,541.022,538.542,0.0
52670.0,STARLINK-4075,PAYLOAD,2023-11-24 09:19:05,15.08831701,0.0001696,53.2182,308.4968,109.0476,251.07,-4.3966e-05,-9.88e-06,0.0,0 STARLINK-4075,1 52670U 22053Q   23328.38825805 -.00000988  00000-0 -43966-4 0  9998,2 52670  53.2182 308.4968 0001696 109.0476 251.0700 15.08831701 84797,6917.906,95.438,540.944,538.597,0.0
52670.0,STARLINK-4075,PAYLOAD,2023-11-24 22:02:10,15.08836068,0.000158,53.2184,306.1103,99.2328,260.8843,-5.8118e-05,-1.213e-05,0.0,0 STARLINK-4075,1 52670U 22053Q   23328.91818044 -.00001213  00000-0 -58118-4 0  9991,2 52670  53.2184 306.1103 0001580  99.2328 260.8843 15.08836068 84879,6917.892,95.438,540.85,538.664,0.0
52670.0,STARLINK-4075,PAYLOAD,2023-11-25 02:48:19,15.08841041,0.0001478,53.2178,305.2237,91.5132,268.6029,3.2042e-05,2.22e-06,0.0,0 STARLINK-4075,1 52670U 22053Q   23329.11689500  .00000222  00000-0  32042-4 0  9992,2 52670  53.2178 305.2237 0001478  91.5132 268.6029 15.08841041 84479,6917.877,95.437,540.765,538.72,0.0
52670.0,STARLINK-4075,PAYLOAD,2023-11-25 07:34:28,15.08844135,0.0001908,53.218,304.3313,81.0887,279.0321,0.00015615,2.198e-05,0.0,0 STARLINK-4075,1 52670U 22053Q   23329.31561199  .00002198  00000-0  15615-3 0  9997,2 52670  53.2180 304.3313 0001908  81.0887 279.0321 15.08844135 84935,6917.868,95.437,541.053,538.413,0.0
52670.0,STARLINK-4075,PAYLOAD,2023-11-26 02:39:06,15.0885219,0.0001486,53.2172,300.7587,117.7732,242.3411,0.0003637,5.507e-05,0.0,0 STARLINK-4075,1 52670U 22053Q   23330.11048728  .00005507  00000-0  36370-3 0  9993,2 52670  53.2172 300.7587 0001486 117.7732 242.3411 15.08852190 84625,6917.843,95.437,540.736,538.68,0.0
52670.0,STARLINK-4075,PAYLOAD,2023-11-26 05:49:52,15.08860912,0.0001657,53.2176,300.1656,80.2958,279.8222,0.0004758,7.297e-05,0.0,0 STARLINK-4075,1 52670U 22053Q   23330.24296388  .00007297  00000-0  47580-3 0  9997,2 52670  53.2176 300.1656 0001657  80.2958 279.8222 15.08860912 84642,6917.816,95.436,540.828,538.535,0.0
52670.0,STARLINK-4075,PAYLOAD,2023-11-26 21:43:44,15.08830063,0.0001695,53.218,297.1957,93.9163,266.2023,-7.9888e-05,-1.559e-05,0.0,0 STARLINK-4075,1 52670U 22053Q   23330.90538106 -.00001559  00000-0 -79888-4 0  9991,2 52670  53.2180 297.1957 0001695  93.9163 266.2023 15.08830063 85179,6917.911,95.438,540.948,538.603,0.0
52670.0,STARLINK-4075,PAYLOAD,2023-11-27 04:05:17,15.08830605,0.0001882,53.2183,296.0003,113.5026,246.6164,-0.00021206,-3.661e-05,0.0,0 STARLINK-4075,1 52670U 22053Q   23331.17034151 -.00003661  00000-0 -21206-3 0  9998,2 52670  53.2183 296.0003 0001882 113.5026 246.6164 15.08830605 84783,6917.909,95.438,541.076,538.472,0.0
52670.0,STARLINK-4075,PAYLOAD,2023-11-28 02:20:40,15.08845387,0.0001904,53.2192,291.8395,121.3617,238.7561,6.019e-05,6.7e-06,0.0,0 STARLINK-4075,1 52670U 22053Q   23332.09769538  .00000670  00000-0  60190-4 0  9995,2 52670  53.2192 291.8395 0001904 121.3617 238.7561 15.08845387 84920,6917.864,95.437,541.046,538.412,0.0
52670.0,STARLINK-4075,PAYLOAD,2023-11-28 07:06:49,15.08867146,0.0001628,53.2193,290.944,116.1956,243.9203,0.00041488,6.326e-05,0.0,0 STARLINK-4075,1 52670U 22053Q   23332.29640588  .00006326  00000-0  41488-3 0  9992,2 52670  53.2193 290.9440 0001628 116.1956 243.9203 15.08867146 84954,6917.797,95.436,540.789,538.536,0.0
52670.0,STARLINK-4075,PAYLOAD,2023-11-28 21:25:18,15.0883998,0.0002406,53.2191,288.2637,134.5962,225.5227,0.00015944,2.25e-05,0.0,0 STARLINK-4075,1 52670U 22053Q   23332.89257893  .00002250  00000-0  15944-3 0  9991,2 52670  53.2191 288.2637 0002406 134.5962 225.5227 15.08839980 85471,6917.88,95.438,541.41,538.081,0.0
52670.0,STARLINK-4075,PAYLOAD,2023-11-29 03:46:51,15.08848027,0.0001949,53.2184,287.0784,121.1363,238.9821,0.00028383,4.233e-05,0.0,0 STARLINK-4075,1 52670U 22053Q   23333.15753676  .00004233  00000-0  28383-3 0  9995,2 52670  53.2184 287.0784 0001949 121.1363 238.9821 15.08848027 85088,6917.856,95.437,541.069,538.373,0.0
52670.0,STARLINK-4075,PAYLOAD,2023-11-30 02:02:15,15.08846807,0.0001908,53.2174,282.9146,90.3923,269.7288,4.0667e-05,3.59e-06,0.0,0 STARLINK-4075,1 52670U 22053Q   23334.08489755  .00000359  00000-0  40667-4 0  9997,2 52670  53.2174 282.9146 0001908  90.3923 269.7288 15.08846807 85226,6917.86,95.437,541.045,538.405,0.0
52670.0,STARLINK-4075,PAYLOAD,2023-12-01 03:28:25,15.08837649,0.0001686,53.2174,278.1586,104.5362,255.5817,6.6137e-05,7.65e-06,0.0,0 STARLINK-4075,1 52670U 22053Q   23335.14474301  .00000765  00000-0  66137-4 0  9997,2 52670  53.2174 278.1586 0001686 104.5362 255.5817 15.08837649 85381,6917.888,95.438,540.919,538.586,0.0
52670.0,STARLINK-4075,PAYLOAD,2023-12-01 06:39:12,15.08839468,0.0001621,53.2172,277.5616,102.0961,258.0213,0.00011994,1.621e-05,0.0,0 STARLINK-4075,1 52670U 22053Q   23335.27722279  .00001621  00000-0  11994-3 0  9993,2 52670  53.2172 277.5616 0001621 102.0961 258.0213 15.08839468 85832,6917.882,95.438,540.868,538.626,0.0
52670.0,STARLINK-4075,PAYLOAD,2023-12-02 04:54:34,15.08882889,0.0001606,53.2175,273.4003,88.7809,271.3367,0.0008779,0.00013728,0.0,0 STARLINK-4075,1 52670U 22053Q   23336.20456547  .00013728  00000-0  87790-3 0  9997,2 52670  53.2175 273.4003 0001606  88.7809 271.3367 15.08882889 85545,6917.749,95.435,540.725,538.503,0.0
